#aV2015  9 25  0  0  0.00000000     288 DD+AD WGS84 FIT  NGA
## 1863 432000.00000000   300.00000000 57290 0.0000000000000
+   31     1  2  3  4  5  6  7  8  9 11 12 13 14 15 16 17 18
+         19 20 21 22 23 24 25 26 27 28 29 30 31 32  0  0  0
+          0  0  0  0  0  0  0  0  0  0  0  0  0  0  0  0  0
+          0  0  0  0  0  0  0  0  0  0  0  0  0  0  0  0  0
+          0  0  0  0  0  0  0  0  0  0  0  0  0  0  0  0  0
++         2  2  2  2  2  2  2  2  2  2  2  2  2  2  2  2  2
++         2  2  2  2  2  2  2  2  2  2  2  2  2  2  0  0  0
++         0  0  0  0  0  0  0  0  0  0  0  0  0  0  0  0  0
++         0  0  0  0  0  0  0  0  0  0  0  0  0  0  0  0  0
++         0  0  0  0  0  0  0  0  0  0  0  0  0  0  0  0  0
%c cc cc ccc ccc cccc cccc cccc cccc ccccc ccccc ccccc ccccc
%c cc cc ccc ccc cccc cccc cccc cccc ccccc ccccc ccccc ccccc
%f  0.0000000  0.000000000  0.00000000000  0.000000000000000
%f  0.0000000  0.000000000  0.00000000000  0.000000000000000
%i    0    0    0    0      0      0      0      0         0
%i    0    0    0    0      0      0      0      0         0
/*      NGA, ST. LOUIS,MO.                                  
/*   EPHEMERIS COMPUTED FROM  1 DAYS OF DATA                
/*   EPOCHA SMOOTHER                                       
/* CCCCCCCCCCCCCCCCCCCCCCCCCCCCCCCCCCCCCCCCCCCCCCCCCCCCCCCCC
*  2015  9 25  6 50  0.00000000
P  1 -21194.034663 -13848.674581  -8432.667815      1.133327                    
V  1  10731.722443   1338.120864 -29216.595568      0.007194                    
P  2    101.588150  16345.084135  21375.487051    590.315125                    
V  2 -25172.168858  -7513.977940   5536.265241      0.015359                    
P  3 -13172.579360 -18633.268385  13578.422352     21.242964                    
V  3   -970.105766 -17360.099443 -24801.980142     -0.000213                    
P  4 -13629.362224 -16773.085261 -15955.131616    -24.496236                    
V  4  19242.128786   4188.109408 -21052.042086     -0.043614                    
P  5   1525.144700  25948.394138   4872.033027   -191.843450                    
V  5  -4502.707649  -5542.135524  30748.540876      0.040063                    
P  6 -13267.821737  10465.583000  20485.356302     64.646272                    
V  6 -24244.041106  -9482.153464 -10863.983298      0.072495                    
P  7 -25522.493922  -5353.514464  -5913.880207    484.181018                    
V  7  -6317.408987  -4718.662509  30504.935829     -0.007106                    
P  8  -5131.253772 -15145.631931 -21163.772248     -6.474658                    
V  8  20815.329182 -17172.784382   7213.266466     -0.013203                    
P  9 -20970.136138   3266.578582  15974.253319     -7.549534                    
V  9  14027.851262 -14808.980127  21419.258358      0.024108                    
P 11 -18420.991947 -12118.955716 -15418.418677   -606.289127                    
V 11  18773.851755  -3380.199307 -20423.500577     -0.022604                    
P 12  10671.404772  21409.894938  11659.489879    331.195144                    
V 12    571.758063  14913.125109 -27452.236262      0.033819                    
P 13  -5996.933872  18840.204729 -17919.730802   -151.797843                    
V 13 -19277.321678  11518.575589  18593.042863     -0.029362                    
P 14  21959.252490 -14664.317024  -1678.557019     32.381883                    
V 14   -308.492503   3715.463613 -31863.513506     -0.026056                    
P 15   7222.584840  14648.601626 -20999.173933   -273.425558                    
V 15 -19839.726986  17741.711740   5909.777266     -0.020363                    
P 16    370.428695 -25821.300223   5216.832448    -83.026828                    
V 16   2906.236055   6480.106335  31737.353969      0.038954                    
P 17 -21244.126674  15680.366476  -1110.709167   -188.867082                    
V 17   -206.284648  -3156.561433 -32133.850514     -0.012809                    
P 18  15995.810394    224.049348 -20720.180837    437.005475                    
V 18   5323.341678  27088.678516   4017.442967      0.032362                    
P 19 -13753.222204  -8280.843726 -21471.146508   -520.603686                    
V 19  21518.322352 -15650.813177  -7403.803104     -0.005700                    
P 20  13430.818302  20549.673486 -10189.570565    358.040191                    
V 20     -5.876860  13268.370767  27238.750353      0.030272                    
P 21  25210.853840   2180.332798  -7883.042201   -482.199807                    
V 21   9342.358292   6527.406549  28749.019650     -0.027186                    
P 22  11399.821335 -14587.576690 -18746.747913    394.675207                    
V 22   6997.821650  23558.271795 -14076.619772      0.038371                    
P 23 -13189.070077  -9007.179363  21435.126323   -135.188498                    
V 23  20213.264817 -17637.931433   4632.000973     -0.021856                    
P 24  19424.536065  14624.690006 -10908.482753     -5.256518                    
V 24 -13866.939817  -1912.038523 -27181.542754     -0.006739                    
P 25  15188.842827   9301.452392  19656.462526    -43.448590                    
V 25   3681.618098  24824.511568 -14358.017041     -0.052440                    
P 26   6160.180390 -21419.539457  14438.238570    -63.183584                    
V 26   5537.909776  17613.274571  23768.932766     -0.117320                    
P 27   6983.205980 -20259.005651 -15640.856513     22.402625                    
V 27  16235.695557 -11561.331891  22378.756852      0.030002                    
P 28 -12376.165559  10292.565562 -20487.040093    469.954495                    
V 28  -3894.215649 -27132.666812 -11028.888304      0.026621                    
P 29  19825.810289   -100.405613  17668.467537    636.134627                    
V 29 -16880.014787  14781.293190  19073.391942      0.021229                    
P 30 -21378.443859   2719.092743 -15579.681282     30.401666                    
V 30 -17304.188313  -9766.918553  21958.858214      0.064658                    
P 31  13041.865052 -10213.591656  20965.302795    301.602881                    
V 31  24211.635964  10043.155738  -9900.756091     -0.013991                    
P 32  -5167.987537 -26135.576437   3332.786266    -33.361161                    
V 32   2290.753252  -4497.712934 -30731.418692      0.111245                    
EOF
